{
    "links": {
        "self": "http://www.neowsapp.com/rest/v1/neo/3752725?api_key=iIulBulltgU6a56xZRHN4H3l9WmuAYTsLGpBGhQ2"
    },
    "id": "3752725",
    "neo_reference_id": "3752725",
    "name": "(2016 JQ)",
    "designation": "2016 JQ",
    "nasa_jpl_url": "http://ssd.jpl.nasa.gov/sbdb.cgi?sstr=3752725",
    "absolute_magnitude_h": 22.5,
    "estimated_diameter": {
        "kilometers": {
            "estimated_diameter_min": 0.0840533402,
            "estimated_diameter_max": 0.1879489824
        },
        "meters": {
            "estimated_diameter_min": 84.0533402073,
            "estimated_diameter_max": 187.9489824394
        },
        "miles": {
            "estimated_diameter_min": 0.0522283081,
            "estimated_diameter_max": 0.1167860472
        },
        "feet": {
            "estimated_diameter_min": 275.7655606856,
            "estimated_diameter_max": 616.6305395464
        }
    },
    "is_potentially_hazardous_asteroid": false,
    "close_approach_data": [
        {
            "close_approach_date": "2016-04-10",
            "close_approach_date_full": "2016-Apr-10 21:27",
            "epoch_date_close_approach": 1460323620000,
            "relative_velocity": {
                "kilometers_per_second": "10.666839735",
                "kilometers_per_hour": "38400.6230459464",
                "miles_per_hour": "23860.6538031882"
            },
            "miss_distance": {
                "astronomical": "0.1764837154",
                "lunar": "68.6521652906",
                "kilometers": "26401587.913526198",
                "miles": "16405186.0108816124"
            },
            "orbiting_body": "Earth"
        },
        {
            "close_approach_date": "2019-02-02",
            "close_approach_date_full": "2019-Feb-02 23:16",
            "epoch_date_close_approach": 1549149360000,
            "relative_velocity": {
                "kilometers_per_second": "15.9584029558",
                "kilometers_per_hour": "57450.2506407778",
                "miles_per_hour": "35697.3515717655"
            },
            "miss_distance": {
                "astronomical": "0.4354341056",
                "lunar": "169.3838670784",
                "kilometers": "65140014.723115072",
                "miles": "40476128.2459371136"
            },
            "orbiting_body": "Earth"
        }
    ],
    "orbital_data": {
        "orbit_id": "7",
        "orbit_determination_date": "2017-04-06 08:26:13",
        "first_observation_date": "2016-05-02",
        "last_observation_date": "2016-06-08",
        "data_arc_in_days": 37,
        "observations_used": 45,
        "orbit_uncertainty": "7",
        "minimum_orbit_intersection": ".109554",
        "jupiter_tisserand_invariant": "3.638",
        "epoch_osculation": "2459000.5",
        "eccentricity": ".4786284168089002",
        "semi_major_axis": "2.037351816149803",
        "inclination": "9.326234505086445",
        "ascending_node_longitude": "33.11087633055951",
        "orbital_period": "1062.178418311499",
        "perihelion_distance": "1.062217341903285",
        "perihelion_argument": "135.5152813319865",
        "aphelion_distance": "3.01248629039632",
        "perihelion_time": "2458529.260487282695",
        "mean_anomaly": "159.7153751701239",
        "mean_motion": ".3389261105231993",
        "equinox": "J2000",
        "orbit_class": {
            "orbit_class_type": "AMO",
            "orbit_class_description": "Near-Earth asteroid orbits similar to that of 1221 Amor",
            "orbit_class_range": "1.017 AU < q (perihelion) < 1.3 AU"
        }
    },
    "is_sentry_object": false
}